{
    "links": {
        "self": "http://www.neowsapp.com/rest/v1/neo/3991697?api_key=iIulBulltgU6a56xZRHN4H3l9WmuAYTsLGpBGhQ2"
    },
    "id": "3991697",
    "neo_reference_id": "3991697",
    "name": "(2020 DV1)",
    "designation": "2020 DV1",
    "nasa_jpl_url": "http://ssd.jpl.nasa.gov/sbdb.cgi?sstr=3991697",
    "absolute_magnitude_h": 24.081,
    "estimated_diameter": {
        "kilometers": {
            "estimated_diameter_min": 0.0405840119,
            "estimated_diameter_max": 0.0907486094
        },
        "meters": {
            "estimated_diameter_min": 40.5840118957,
            "estimated_diameter_max": 90.7486093984
        },
        "miles": {
            "estimated_diameter_min": 0.0252177281,
            "estimated_diameter_max": 0.0563885542
        },
        "feet": {
            "estimated_diameter_min": 133.1496495879,
            "estimated_diameter_max": 297.7316676588
        }
    },
    "is_potentially_hazardous_asteroid": false,
    "close_approach_data": [
        {
            "close_approach_date": "2020-02-29",
            "close_approach_date_full": "2020-Feb-29 06:01",
            "epoch_date_close_approach": 1582956060000,
            "relative_velocity": {
                "kilometers_per_second": "15.611836118",
                "kilometers_per_hour": "56202.6100249753",
                "miles_per_hour": "34922.1162124631"
            },
            "miss_distance": {
                "astronomical": "0.0267719436",
                "lunar": "10.4142860604",
                "kilometers": "4005025.738320132",
                "miles": "2488607.5955245416"
            },
            "orbiting_body": "Earth"
        }
    ],
    "orbital_data": {
        "orbit_id": "6",
        "orbit_determination_date": "2020-03-11 05:59:56",
        "first_observation_date": "2020-02-18",
        "last_observation_date": "2020-02-29",
        "data_arc_in_days": 11,
        "observations_used": 54,
        "orbit_uncertainty": "8",
        "minimum_orbit_intersection": ".0253074",
        "jupiter_tisserand_invariant": "3.145",
        "epoch_osculation": "2458900.5",
        "eccentricity": ".6651773058163937",
        "semi_major_axis": "2.450364194206032",
        "inclination": "4.443162148956075",
        "ascending_node_longitude": "179.5969349927253",
        "orbital_period": "1401.02015634874",
        "perihelion_distance": ".8204375412351051",
        "perihelion_argument": "35.65580580431206",
        "aphelion_distance": "4.080290847176959",
        "perihelion_time": "2458945.335720370512",
        "mean_anomaly": "348.4792097670816",
        "mean_motion": ".256955617925021",
        "equinox": "J2000",
        "orbit_class": {
            "orbit_class_type": "APO",
            "orbit_class_description": "Near-Earth asteroid orbits which cross the Earth’s orbit similar to that of 1862 Apollo",
            "orbit_class_range": "a (semi-major axis) > 1.0 AU; q (perihelion) < 1.017 AU"
        }
    },
    "is_sentry_object": false
}